0 COSMOS 1560
1 14999U 84052B   13281.00681375  .00000014  00000-0  20622-3 0  5183
2 14999 074.0095 103.3379 0013207 086.0483 082.6875 12.46052303335673
0 COSMOS 1560
1 14999U 84052B   13283.01635383  .00000018  00000-0  23538-3 0  5198
2 14999 074.0096 100.6837 0013204 082.9223 097.1919 12.46052356335923
0 COSMOS 1560
1 14999U 84052B   13285.47935078 -.00000010  00000-0  36144-4 0  5207
2 14999 074.0098 097.4306 0013209 079.0084 345.9195 12.46052859336239
0 COSMOS 1560
1 14999U 84052B   13287.73932392 -.00000033  00000-0 -12234-3 0  5214
2 14999 074.0103 094.4457 0013207 075.4751 043.8509 12.46053050336517
0 COSMOS 1560
1 14999U 84052B   13289.82361032 -.00000035  00000-0 -13446-3 0  5222
2 14999 074.0108 091.6929 0013223 072.1891 033.7041 12.46052927336771
0 COSMOS 1560
1 14999U 84052B   13292.15360194 -.00000009  00000-0  46331-4 0  5231
2 14999 074.0113 088.6160 0013244 068.5694 045.7073 12.46052679337068
0 COSMOS 1560
1 14999U 84052B   13294.16008229  .00000008  00000-0  16425-3 0  5241
2 14999 074.0116 085.9661 0013258 065.4612 046.4755 12.46052512337317
